0 FENGYUN 1C DEB
1 31558U 99025BYZ 13281.21220888  .00000300  00000-0  97364-4 0  6884
2 31558 098.7623 003.4597 0228797 034.7702 348.2487 14.32530324338057
0 FENGYUN 1C DEB
1 31558U 99025BYZ 13283.45383395  .00000321  00000-0  10342-3 0  6899
2 31558 098.7625 005.7269 0228649 028.1952 028.5478 14.32534156338370
0 FENGYUN 1C DEB
1 31558U 99025BYZ 13285.70713837  .00000351  00000-0  11177-3 0  6909
2 31558 098.7627 008.0066 0228491 021.5546 129.1337 14.32535276338695
0 FENGYUN 1C DEB
1 31558U 99025BYZ 13288.20254061  .00000624  00000-0  18709-3 0  6918
2 31558 098.7621 010.5309 0228363 014.2189 038.2455 14.32537966339057
0 FENGYUN 1C DEB
1 31558U 99025BYZ 13291.48739736  .00000456  00000-0  14106-3 0  6920
2 31558 098.7614 013.8543 0228167 004.5852 058.6957 14.32541570339527
0 FENGYUN 1C DEB
1 31558U 99025BYZ 13294.08210916  .00000495  00000-0  15185-3 0  6935
2 31558 098.7611 016.4791 0228028 356.9510 120.0281 14.32544291339896
